INTELSAT 31             
1 41581C 16035A   21171.94559028 -.00003362  00000-0  00000-0 0  1715
2 41581   0.0150 281.6702 0001947 286.1973 306.8544  1.00270455    15
INTELSAT 31             
1 41581C 16035A   21174.94560185 -.00000044  00000-0  00000-0 0  1741
2 41581   0.0051 308.9189 0001893 257.9174 310.8406  1.00270085    17
INTELSAT 31         [PM]
1 41581C 16035A   21175.07504630 -.00003819  00000-0  00000-0 0  1753
2 41581   0.0074 301.4129 0001853 262.7825   0.2059  1.00271910    19
INTELSAT 36             
1 41747C 16053A   21171.94559028  .00000066  00000-0  00000-0 0  1716
2 41747   0.0137 350.4137 0002430  30.6288 297.2286  1.00270785    12
INTELSAT 36             
1 41747C 16053A   21174.94560185  .00000066  00000-0  00000-0 0  1748
2 41747   0.0118  10.6081 0002467  12.5091 298.1020  1.00270985    13
INTELSAT 36         [PM]
1 41747C 16053A   21176.33960648  .00000067  00000-0  00000-0 0  1764
2 41747   0.0112 349.7566 0002408  20.2776  94.3979  1.00272202    15
INTELSAT 33E            
1 41748C 16053B   21172.00000000  .00000139  00000-0  00000-0 0  1728
2 41748   0.0224 350.6521 0002071 102.3257 236.4304  1.00270970    15
INTELSAT 33E            
1 41748C 16053B   21175.00000000  .00000139  00000-0  00000-0 0  1754
2 41748   0.0207  17.9248 0002179  81.1900 233.2417  1.00271959    11
INTELSAT 33E        [PM]
1 41748C 16053B   21177.87909722  .00000139  00000-0  00000-0 0  1772
2 41748   0.0158   7.4615 0002248 104.0203 180.1900  1.00272345    13
INTELSAT 32E            
1 41945C 17007B   21172.00000000 -.00000209  00000-0  00000-0 0  1726
2 41945   0.0032   8.5275 0000691   6.3227 211.3986  1.00270252    13
INTELSAT 32E            
1 41945C 17007B   21175.00000000 -.00000179  00000-0  00000-0 0  1758
2 41945   0.0148  55.6215 0000490 335.0660 198.4961  1.00269308    16
INTELSAT 32E        [PM]
1 41945C 17007B   21175.18304398 -.00000188  00000-0  00000-0 0  1754
2 41945   0.0022  18.8715 0000881 348.4280 287.9600  1.00273511    18
INTELSAT 35E            
1 42818C 17041A   21172.00000000 -.00000148  00000-0  00000-0 0  1726
2 42818   0.0308 260.5094 0002015 183.5432 150.8661  1.00272193    19
INTELSAT 35E            
1 42818C 17041A   21175.00000000 -.00004350  00000-0  00000-0 0  1751
2 42818   0.0209 269.3434 0002062 180.7543 147.7748  1.00271371    16
INTELSAT 35E        [PM]
1 42818C 17041A   21177.64637732 -.00000128  00000-0  00000-0 0  1772
2 42818   0.0467 219.2179 0002021 234.1345  19.8167  1.00270374    17
INTELSAT 37E            
1 42950C 17059A   21172.00000000 -.00000071  00000-0  00000-0 0  1727
2 42950   0.0037 330.7331 0002908 135.8627 144.8229  1.00270365    18
INTELSAT 37E            
1 42950C 17059A   21175.00000000 -.00000085  00000-0  00000-0 0  1758
2 42950   0.0032  37.4572 0002933  64.8608 152.0406  1.00276917    16
INTELSAT 37E        [PM]
1 42950C 17059A   21178.10000000 -.00000052  00000-0  00000-0 0  1789
2 42950   0.0000   8.0720 0002935  96.2603 189.0916  1.00271363    12
AZERSPACE 2             
1 43632C 18074A   21171.94559028  .00000228  00000-0  00000-0 0  1716
2 43632   0.0029 354.0197 0001745  95.8837 204.9837  1.00269386    16
AZERSPACE 2             
1 43632C 18074A   21174.94560185  .00000227  00000-0  00000-0 0  1747
2 43632   0.0095  44.7194 0001843  55.2603 197.8551  1.00271336    10
HORIZONS 3E             
1 43633C 18074B   21171.94559028  .00000033  00000-0  00000-0 0  1711
2 43633   0.0162 236.2366 0000588  78.7900 103.7477  1.00269567    16
HORIZONS 3E             
1 43633C 18074B   21174.94560185  .00000018  00000-0  00000-0 0  1746
2 43633   0.0279 209.6936 0000571 104.6099 107.4293  1.00268328    13
INTELSAT 39             
1 44476C 19049B   21171.94559028  .00000120  00000-0  00000-0 0  1717
2 44476   0.0070 330.1726 0000650  40.3684 301.1781  1.00270543    16
INTELSAT 39             
1 44476C 19049B   21174.94560185  .00000124  00000-0  00000-0 0  1743
2 44476   0.0018   2.5050 0000581  15.9175 296.2460  1.00270967    12
INTELSAT 39         [PM]
1 44476C 19049B   21175.36682870  .00000139  00000-0  00000-0 0  1753
2 44476   0.0032 345.0271 0000583  25.5850  96.1151  1.00271890    17
GALAXY 30               
1 46114C 20056C   21172.00000000 -.00003385  00000-0  00000-0 0  1725
2 46114   0.0111  50.3535 0002304  42.7907  51.2811  1.00268423    15
GALAXY 30               
1 46114C 20056C   21175.00000000 -.00002516  00000-0  00000-0 0  1756
2 46114   0.0033  51.5541 0002335  47.4546  48.3402  1.00269994    10
GALAXY 30           [PM]
1 46114C 20056C   21178.86666667  .00000127  00000-0  00000-0 0  1788
2 46114   0.0157  84.8463 0002244  20.5898 357.7143  1.00272400    15
